0 BREEZE-M DEB
1 38931U 12044BQ  13282.17322841  .00414024  19598-4  75091-2 0  5114
2 38931 049.9215 227.1445 1606236 202.3431 149.9040 12.34286857 40041
0 BREEZE-M DEB
1 38931U 12044BQ  13283.14438745  .00371483  16640-4  67724-2 0  5124
2 38931 049.9248 224.0494 1602207 204.9030 146.5438 12.35080614 40165
0 BREEZE-M DEB
1 38931U 12044BQ  13284.19582245  .00360287  15904-4  65768-2 0  5134
2 38931 049.9243 220.6967 1599058 207.6955 142.9019 12.35737370 40299
0 BREEZE-M DEB
1 38931U 12044BQ  13285.16586145  .00325533  13789-4  59419-2 0  5146
2 38931 049.9246 217.5989 1596007 210.2654 139.5818 12.36397105 40410
0 BREEZE-M DEB
1 38931U 12044BQ  13285.81228404  .00341808  14742-4  62128-2 0  5154
2 38931 049.9259 215.5321 1594201 211.9823 137.3790 12.36840789 40496
0 BREEZE-M DEB
1 38931U 12044BQ  13286.13541108  .00352858  15418-4  64120-2 0  5162
2 38931 049.9260 214.4994 1593191 212.8434 136.2804 12.37058815 40538
0 BREEZE-M DEB
1 38931U 12044BQ  13287.18519630  .00350883  15284-4  63744-2 0  5172
2 38931 049.9265 211.1417 1590217 215.6414 132.7332 12.37699396 40668
0 BREEZE-M DEB
1 38931U 12044BQ  13288.15370372  .00434433  21116-4  78463-2 0  5188
2 38931 049.9292 208.0387 1586721 218.2199 129.5057 12.38520761 40784
0 BREEZE-M DEB
1 38931U 12044BQ  13289.12158413  .00412270  19445-4  74091-2 0  5197
2 38931 049.9305 204.9347 1583637 220.8011 126.3070 12.39254664 40906
0 BREEZE-M DEB
1 38931U 12044BQ  13290.16951132  .00409199  19219-4  73992-2 0  5208
2 38931 049.9308 201.5717 1579928 223.5913 122.8936 12.39961248 41032
0 BREEZE-M DEB
1 38931U 12044BQ  13291.13628037  .00375971  16895-4  67840-2 0  5214
2 38931 049.9310 198.4653 1576655 226.1726 119.7733 12.40696739 41158
0 BREEZE-M DEB
1 38931U 12044BQ  13292.10251478  .00345351  14926-4  62524-2 0  5220
2 38931 049.9327 195.3562 1573538 228.7506 116.6936 12.41320778 41274
0 BREEZE-M DEB
1 38931U 12044BQ  13293.71183860  .00360732  15890-4  64193-2 0  5233
2 38931 049.9288 190.1717 1569908 233.0689 111.6048 12.42343464 41471
0 BREEZE-M DEB
1 38931U 12044BQ  13294.75718969  .00388958  17783-4  69170-2 0  5246
2 38931 049.9259 186.8017 1566699 235.8729 108.3678 12.43036865 41605
0 BREEZE-M DEB
1 38931U 12044BQ  13295.07871687  .00369344  16453-4  65707-2 0  5253
2 38931 049.9291 185.7658 1565791 236.7439 107.3709 12.43228605 41643
0 BREEZE-M DEB
1 38931U 12044BQ  13296.04301588  .00369006  16434-4  65418-2 0  5263
2 38931 049.9292 182.6506 1562994 239.3260 104.4431 12.43878354 41760
